$$SOE
2460721.500000000, A.D. 2025-Feb-15 00:00:00.0000, 6.684569561147242E+07, -3.508030241065823E+08, 4.750843554504968E+07,
2460728.500000000, A.D. 2025-Feb-22 00:00:00.0000, 7.782775345650637E+07, -3.469708919707782E+08, 4.744738450795861E+07,
2460735.500000000, A.D. 2025-Mar-01 00:00:00.0000, 8.872796297954322E+07, -3.427740257919458E+08, 4.733644719578679E+07,
2460742.500000000, A.D. 2025-Mar-08 00:00:00.0000, 9.953366917478557E+07, -3.382122127837729E+08, 4.717510121777231E+07,
2460749.500000000, A.D. 2025-Mar-15 00:00:00.0000, 1.102319998090616E+08, -3.332856568031066E+08, 4.696286920331039E+07,
2460756.500000000, A.D. 2025-Mar-22 00:00:00.0000, 1.208098735898736E+08, -3.279949990973870E+08, 4.669932216208090E+07,
2460763.500000000, A.D. 2025-Mar-29 00:00:00.0000, 1.312540113154755E+08, -3.223413416117200E+08, 4.638408263687326E+07,
2460770.500000000, A.D. 2025-Apr-05 00:00:00.0000, 1.415509504335867E+08, -3.163262696223482E+08, 4.601682786739880E+07,
2460777.500000000, A.D. 2025-Apr-12 00:00:00.0000, 1.516870611808247E+08, -3.099518734846883E+08, 4.559729314029883E+07,
2460784.500000000, A.D. 2025-Apr-19 00:00:00.0000, 1.616485642096134E+08, -3.032207702542961E+08, 4.512527525833967E+07,
2460791.500000000, A.D. 2025-Apr-26 00:00:00.0000, 1.714215500631030E+08, -2.961361252458880E+08, 4.460063607304335E+07,
2460798.500000000, A.D. 2025-May-03 00:00:00.0000, 1.809920006935028E+08, -2.887016733585060E+08, 4.402330605553666E+07,
2460805.500000000, A.D. 2025-May-10 00:00:00.0000, 1.903458131245923E+08, -2.809217399899240E+08, 4.339328788485917E+07,
2460812.500000000, A.D. 2025-May-17 00:00:00.0000, 1.994688253562675E+08, -2.728012613967509E+08, 4.271066002541567E+07,
2460819.500000000, A.D. 2025-May-24 00:00:00.0000, 2.083468447347112E+08, -2.643458043551609E+08, 4.197558024963355E+07,
2460826.500000000, A.D. 2025-May-31 00:00:00.0000, 2.169656792413918E+08, -2.555615846007890E+08, 4.118828906854171E+07,
2460833.500000000, A.D. 2025-Jun-07 00:00:00.0000, 2.253111713141593E+08, -2.464554826228429E+08, 4.034911317922593E+07,
2460840.500000000, A.D. 2025-Jun-14 00:00:00.0000, 2.333692318224049E+08, -2.370350572446456E+08, 3.945846906049546E+07,
2460847.500000000, A.D. 2025-Jun-21 00:00:00.0000, 2.411258753717439E+08, -2.273085600077018E+08, 3.851686630090969E+07,
2460854.500000000, A.D. 2025-Jun-28 00:00:00.0000, 2.485672600035738E+08, -2.172849483255470E+08, 3.752491047676646E+07,
2460861.500000000, A.D. 2025-Jul-05 00:00:00.0000, 2.556797296901547E+08, -2.069738949777417E+08, 3.648330585651639E+07,
2460868.500000000, A.D. 2025-Jul-12 00:00:00.0000, 2.624498583264329E+08, -1.963857944789699E+08, 3.539285793789355E+07,
2460875.500000000, A.D. 2025-Jul-19 00:00:00.0000, 2.688644952679616E+08, -1.855317666345693E+08, 3.425447571705388E+07,
2460882.500000000, A.D. 2025-Jul-26 00:00:00.0000, 2.749108124464921E+08, -1.744236570825648E+08, 3.306917362848745E+07,
2460889.500000000, A.D. 2025-Aug-02 00:00:00.0000, 2.805763529107198E+08, -1.630740345515160E+08, 3.183807311221519E+07,
2460896.500000000, A.D. 2025-Aug-09 00:00:00.0000, 2.858490805591931E+08, -1.514961846106847E+08, 3.056240376435588E+07,
2460903.500000000, A.D. 2025-Aug-16 00:00:00.0000, 2.907174308472660E+08, -1.397040997538992E+08, 2.924350401769655E+07,
2460910.500000000, A.D. 2025-Aug-23 00:00:00.0000, 2.951703624273474E+08, -1.277124655984713E+08, 2.788282128587372E+07,
2460917.500000000, A.D. 2025-Aug-30 00:00:00.0000, 2.991974096865676E+08, -1.155366423081739E+08, 2.648191156154601E+07,
2460924.500000000, A.D. 2025-Sep-06 00:00:00.0000, 3.027887343728595E+08, -1.031926401011581E+08, 2.504243864788759E+07,
2460931.500000000, A.D. 2025-Sep-13 00:00:00.0000, 3.059351742150056E+08, -9.069709122949161E+07, 2.356617294405952E+07,
2460938.500000000, A.D. 2025-Sep-20 00:00:00.0000, 3.086282913552425E+08, -7.806722001515673E+07, 2.205498932324506E+07,
2460945.500000000, A.D. 2025-Sep-27 00:00:00.0000, 3.108604211851045E+08, -6.532080781539273E+07, 2.051086424115487E+07,
2460952.500000000, A.D. 2025-Oct-04 00:00:00.0000, 3.126247190951207E+08, -5.247615241978768E+07, 1.893587229345855E+07,
2460959.500000000, A.D. 2025-Oct-11 00:00:00.0000, 3.139152042872906E+08, -3.955202292481436E+07, 1.733218217599899E+07,
2460966.500000000, A.D. 2025-Oct-18 00:00:00.0000, 3.147268004557244E+08, -2.656761052391773E+07, 1.570205200270790E+07,
2460973.500000000, A.D. 2025-Oct-25 00:00:00.0000, 3.150553730029172E+08, -1.354247542605501E+07, 1.404782397964437E+07,
2460980.500000000, A.D. 2025-Nov-01 00:00:00.0000, 3.148977623742127E+08, -4.964901698434344E+05, 1.237191845066725E+07,
2460987.500000000, A.D. 2025-Nov-08 00:00:00.0000, 3.142518131133550E+08, 1.255022029553660E+07, 1.067682733499438E+07,
2460994.500000000, A.D. 2025-Nov-15 00:00:00.0000, 3.131163983897769E+08, 2.557734130835823E+07, 8.965106972467080E+06,
2461001.500000000, A.D. 2025-Nov-22 00:00:00.0000, 3.114914400414004E+08, 3.856443374237780E+07, 7.239370399141137E+06,
2461008.500000000, A.D. 2025-Nov-29 00:00:00.0000, 3.093779236651411E+08, 5.149100244990502E+07, 5.502279209747355E+06,
2461015.500000000, A.D. 2025-Dec-06 00:00:00.0000, 3.067779062330021E+08, 6.433656724069320E+07, 3.756535264686584E+06,
2461022.500000000, A.D. 2025-Dec-13 00:00:00.0000, 3.036945164958188E+08, 7.708073246059144E+07, 2.004871992173821E+06,
2461029.500000000, A.D. 2025-Dec-20 00:00:00.0000, 3.001319515492224E+08, 8.970325559979874E+07, 2.500451178828217E+05,
2461036.500000000, A.D. 2025-Dec-27 00:00:00.0000, 2.960954684376028E+08, 1.021841169216594E+08, -1.505176792857975E+06,
2461043.500000000, A.D. 2026-Jan-03 00:00:00.0000, 2.915913693663685E+08, 1.145035888931753E+08, -3.258021817673765E+06,
2461050.500000000, A.D. 2026-Jan-10 00:00:00.0000, 2.866269807371921E+08, 1.266423041398346E+08, -5.005724168982811E+06,
2461057.500000000, A.D. 2026-Jan-17 00:00:00.0000, 2.812106264156753E+08, 1.385813212506125E+08, -6.745533642125651E+06,
2461064.500000000, A.D. 2026-Jan-24 00:00:00.0000, 2.753515955554635E+08, 1.503021878995154E+08, -8.474724943941645E+06,
2461071.500000000, A.D. 2026-Jan-31 00:00:00.0000, 2.690601053134781E+08, 1.617870007558031E+08, -1.019060682534534E+07,
2461078.500000000, A.D. 2026-Feb-07 00:00:00.0000, 2.623472588888499E+08, 1.730184616498491E+08, -1.189053095227522E+07,
2461085.500000000, A.D. 2026-Feb-14 00:00:00.0000, 2.552249995641281E+08, 1.839799295559546E+08, -1.357190046826103E+07,
2461092.500000000, A.D. 2026-Feb-21 00:00:00.0000, 2.477060616080007E+08, 1.946554686000689E+08, -1.523217817212352E+07,
2461099.500000000, A.D. 2026-Feb-28 00:00:00.0000, 2.398039174533250E+08, 2.050298929331023E+08, -1.686889405818065E+07,
2461106.500000000, A.D. 2026-Mar-07 00:00:00.0000, 2.315327196149826E+08, 2.150888062846448E+08, -1.847965213637871E+07,
2461113.500000000, A.D. 2026-Mar-14 00:00:00.0000, 2.229072406848644E+08, 2.248186337001587E+08, -2.006213693530010E+07,
2461120.500000000, A.D. 2026-Mar-21 00:00:00.0000, 2.139428137501312E+08, 2.342066482422447E+08, -2.161411958177891E+07,
2461127.500000000, A.D. 2026-Mar-28 00:00:00.0000, 2.046552717714945E+08, 2.432409936286181E+08, -2.313346316148366E+07,
2461134.500000000, A.D. 2026-Apr-04 00:00:00.0000, 1.950608858490522E+08, 2.519107018525478E+08, -2.461812736325805E+07,
2461141.500000000, A.D. 2026-Apr-11 00:00:00.0000, 1.851763031599838E+08, 2.602057055050246E+08, -2.606617244831936E+07,
2461148.500000000, A.D. 2026-Apr-18 00:00:00.0000, 1.750184852171787E+08, 2.681168449379584E+08, -2.747576255509570E+07,
2461155.500000000, A.D. 2026-Apr-25 00:00:00.0000, 1.646046469636900E+08, 2.756358704839782E+08, -2.884516834860453E+07,
2461162.500000000, A.D. 2026-May-02 00:00:00.0000, 1.539521971728233E+08, 2.827554399428245E+08, -3.017276903441848E+07,
2461169.500000000, A.D. 2026-May-09 00:00:00.0000, 1.430786806752013E+08, 2.894691115372384E+08, -3.145705377513069E+07,
2461176.500000000, A.D. 2026-May-16 00:00:00.0000, 1.320017231388677E+08, 2.957713327735809E+08, -3.269662255855651E+07,
2461183.500000000, A.D. 2026-May-23 00:00:00.0000, 1.207389787558960E+08, 3.016574265507967E+08, -3.389018646960105E+07,
2461190.500000000, A.D. 2026-May-30 00:00:00.0000, 1.093080790105979E+08, 3.071235751676986E+08, -3.503656718217048E+07,
2461197.500000000, A.D. 2026-Jun-06 00:00:00.0000, 9.772658240772054E+07, 3.121667992973561E+08, -3.613469594295959E+07,
2461204.500000000, A.D. 2026-Jun-13 00:00:00.0000, 8.601192898482098E+07, 3.167849324948136E+08, -3.718361240738674E+07,
2461211.500000000, A.D. 2026-Jun-20 00:00:00.0000, 7.418139923273276E+07, 3.209765945227064E+08, -3.818246308571534E+07,
2461218.500000000, A.D. 2026-Jun-27 00:00:00.0000, 6.225207580242018E+07, 3.247411634998075E+08, -3.913049931252788E+07,
2461225.500000000, A.D. 2026-Jul-04 00:00:00.0000, 5.024080803497936E+07, 3.280787464371054E+08, -4.002707484452440E+07,
2461232.500000000, A.D. 2026-Jul-11 00:00:00.0000, 3.816417957222087E+07, 3.309901483576341E+08, -4.087164316267191E+07,
2461239.500000000, A.D. 2026-Jul-18 00:00:00.0000, 2.603847911317064E+07, 3.334768403376231E+08, -4.166375452633458E+07,
2461246.500000000, A.D. 2026-Jul-25 00:00:00.0000, 1.387967428571966E+07, 3.355409267646464E+08, -4.240305282128710E+07,
2461253.500000000, A.D. 2026-Aug-01 00:00:00.0000, 1.703388601939373E+06, 3.371851120369762E+08, -4.308927224807513E+07,
2461260.500000000, A.D. 2026-Aug-08 00:00:00.0000, -1.047511838867872E+07, 3.384126669188914E+08, -4.372223390941684E+07,
2461267.500000000, A.D. 2026-Aug-15 00:00:00.0000, -2.264096745160922E+07, 3.392273952316904E+08, -4.430184233198360E+07,
2461274.500000000, A.D. 2026-Aug-22 00:00:00.0000, -3.477967341773216E+07, 3.396336023113245E+08, -4.482808178573376E+07,
2461281.500000000, A.D. 2026-Aug-29 00:00:00.0000, -4.687715875809042E+07, 3.396360640424947E+08, -4.530101233243725E+07,
2461288.500000000, A.D. 2026-Sep-05 00:00:00.0000, -5.891976499992160E+07, 3.392399937524224E+08, -4.572076605674674E+07,
$$EOE